IRIDIUM 33 DEB          
1 34487U 97051GC  26064.77150621  .00000926  00000+0  26749-3 0  9992
2 34487  86.3482 336.6456 0029467 212.9401 202.0704 14.43374509894465
IRIDIUM 33 DEB          
1 34488U 97051GD  26053.04643645  .01238203  00000+0  64727-2 0  9993
2 34488  86.3081 269.5420 0004770  70.8002 289.3788 15.78089963903416
IRIDIUM 33 DEB          
1 34492U 97051GH  26065.11114978  .00011132  00000+0  37452-2 0  9995
2 34492  86.4697 300.8852 0186311 331.1488 181.5951 14.27673579862476
IRIDIUM 33 DEB          
1 34497U 97051GN  26064.84339933  .00002937  00000+0  11402-2 0  9999
2 34497  86.2814  16.8812 0082049  70.7947 319.3853 14.27766204880693
IRIDIUM 33 DEB          
1 34508U 97051GZ  26065.27502859  .00004372  00000+0  13771-2 0  9995
2 34508  86.3659  67.1841 0061745 259.1524 100.2722 14.39102344885104
IRIDIUM 33 DEB          
1 34521U 97051HN  26065.24294340  .00008454  00000+0  15874-2 0  9991
2 34521  86.3835 353.7569 0004742  17.4931 342.6444 14.64604503896946
IRIDIUM 33 DEB          
1 34525U 97051HS  26065.33696803  .00001831  00000+0  53950-3 0  9995
2 34525  86.3770  11.1502 0004795 146.9090   8.0236 14.43163033892934
IRIDIUM 33 DEB          
1 34529U 97051HW  26065.25596905  .00000915  00000+0  28041-3 0  9997
2 34529  86.3692 359.8110 0003144 305.7402  54.3505 14.40732930893442
IRIDIUM 33 DEB          
1 34538U 97051JF  26065.18404934  .00003061  00000+0  89667-3 0  9995
2 34538  86.2795 329.0091 0036494  50.1191 101.7107 14.43256670889593
IRIDIUM 33 DEB          
1 34540U 97051JH  26065.31477058  .00010506  00000+0  14731-2 0  9991
2 34540  86.3040 269.3290 0014290 235.8166 250.1260 14.77324740902542
IRIDIUM 33 DEB          
1 34648U 97051JZ  26064.50107362  .00008091  00000+0  37111-2 0  9991
2 34648  86.3879 248.4805 0175800  36.4413 324.8586 14.13356662861290
IRIDIUM 33 DEB          
1 34651U 97051KC  26065.07789176  .00007204  00000+0  26814-2 0  9990
2 34651  86.2776 105.0632 0131901 295.4634  63.2960 14.27225873870846
IRIDIUM 33 DEB          
1 34652U 97051KD  26064.95033744  .00004115  00000+0  79526-3 0  9997
2 34652  86.3297 302.9417 0028795  15.8101  45.6626 14.62935061897000
IRIDIUM 33 DEB          
1 34690U 97051KM  26065.27003587  .00002463  00000+0  56150-3 0  9999
2 34690  86.3823   0.6791 0012598  91.6454  61.5565 14.55446992893097
IRIDIUM 33 DEB          
1 34693U 97051KQ  26055.99059176  .01322234  00000+0  68577-2 0  9992
2 34693  86.2833 265.9163 0003939  44.5223 315.6368 15.78525000900614
IRIDIUM 33 DEB          
1 34696U 97051KT  26065.25543560  .00036173  00000+0  55835-2 0  9996
2 34696  86.1832 348.4669 0057229 244.2046 268.7483 14.72065919878987
